{
  "type": "FeatureCollection",
  "features": [
    {
      "type": "Feature",
      "properties": {
        "norad_id": 32376,
        "name": "COSMO-SKYMED 2",
        "group": "resource",
        "lat": -10.53487837124672,
        "lon": -18.672789492843496,
        "alt_km": 627.100852657044,
        "timestamp": "2025-12-07T09:35:09.448617+00:00",
        "meta_object_name": "COSMO-SKYMED 2",
        "meta_object_id": "2007-059A",
        "meta_epoch": "2025-12-06T21:23:14.779392",
        "meta_mean_motion": 14.82154723,
        "meta_eccentricity": 0.00015276,
        "meta_inclination": 97.8813,
        "meta_ra_of_asc_node": 162.3029,
        "meta_arg_of_pericenter": 86.6777,
        "meta_mean_anomaly": 273.4611,
        "meta_ephemeris_type": 0,
        "meta_classification_type": "U",
        "meta_norad_cat_id": 32376,
        "meta_element_set_no": 999,
        "meta_rev_at_epoch": 97351,
        "meta_bstar": 0.00014144897,
        "meta_mean_motion_dot": 1.074e-05,
        "meta_mean_motion_ddot": 0,
        "tle_line1": "1 32376U 07059A   25340.89114328  .00001074  00000+0  14145-3 0  9991",
        "tle_line2": "2 32376  97.8813 162.3029 0001527  86.6777 273.4611 14.82154723973514"
      },
      "geometry": {
        "type": "Point",
        "coordinates": [
          -18.672789492843496,
          -10.53487837124672
        ]
      }
    },
    {
      "type": "Feature",
      "properties": {
        "norad_id": 32382,
        "name": "RADARSAT-2",
        "group": "resource",
        "lat": 59.64981989868406,
        "lon": -28.874655890909562,
        "alt_km": 785.3003351425941,
        "timestamp": "2025-12-07T09:35:09.448628+00:00",
        "meta_object_name": "RADARSAT-2",
        "meta_object_id": "2007-061A",
        "meta_epoch": "2025-12-06T23:13:37.185600",
        "meta_mean_motion": 14.29985093,
        "meta_eccentricity": 0.00010766,
        "meta_inclination": 98.5798,
        "meta_ra_of_asc_node": 345.6419,
        "meta_arg_of_pericenter": 91.4473,
        "meta_mean_anomaly": 268.6833,
        "meta_ephemeris_type": 0,
        "meta_classification_type": "U",
        "meta_norad_cat_id": 32382,
        "meta_element_set_no": 999,
        "meta_rev_at_epoch": 93848,
        "meta_bstar": 7.6632539e-05,
        "meta_mean_motion_dot": 1.54e-06,
        "meta_mean_motion_ddot": 0,
        "tle_line1": "1 32382U 07061A   25340.96779150  .00000154  00000+0  76633-4 0  9998",
        "tle_line2": "2 32382  98.5798 345.6419 0001076  91.4473 268.6833 14.29985093938488"
      },
      "geometry": {
        "type": "Point",
        "coordinates": [
          -28.874655890909562,
          59.64981989868406
        ]
      }
    },
    {
      "type": "Feature",
      "properties": {
        "norad_id": 32783,
        "name": "CARTOSAT-2A",
        "group": "resource",
        "lat": 31.85514490107784,
        "lon": 26.507655615789794,
        "alt_km": 622.4940359017464,
        "timestamp": "2025-12-07T09:35:09.448639+00:00",
        "meta_object_name": "CARTOSAT-2A",
        "meta_object_id": "2008-021A",
        "meta_epoch": "2025-12-06T22:04:28.854624",
        "meta_mean_motion": 14.78920534,
        "meta_eccentricity": 0.00122503,
        "meta_inclination": 97.7938,
        "meta_ra_of_asc_node": 30.925,
        "meta_arg_of_pericenter": 22.9571,
        "meta_mean_anomaly": 337.2185,
        "meta_ephemeris_type": 0,
        "meta_classification_type": "U",
        "meta_norad_cat_id": 32783,
        "meta_element_set_no": 999,
        "meta_rev_at_epoch": 95038,
        "meta_bstar": 0.00022814394,
        "meta_mean_motion_dot": 1.634e-05,
        "meta_mean_motion_ddot": 0,
        "tle_line1": "1 32783U 08021A   25340.91977841  .00001634  00000+0  22814-3 0  9997",
        "tle_line2": "2 32783  97.7938  30.9250 0012250  22.9571 337.2185 14.78920534950380"
      },
      "geometry": {
        "type": "Point",
        "coordinates": [
          26.507655615789794,
          31.85514490107784
        ]
      }
    },
    {
      "type": "Feature",
      "properties": {
        "norad_id": 33320,
        "name": "HUANJING 1A (HJ-1A)",
        "group": "resource",
        "lat": 7.373377371859945,
        "lon": 150.9179276656676,
        "alt_km": 628.1537325138243,
        "timestamp": "2025-12-07T09:35:09.448649+00:00",
        "meta_object_name": "HUANJING 1A (HJ-1A)",
        "meta_object_id": "2008-041A",
        "meta_epoch": "2025-12-06T23:05:56.966496",
        "meta_mean_motion": 14.83366559,
        "meta_eccentricity": 0.00204795,
        "meta_inclination": 97.6535,
        "meta_ra_of_asc_node": 329.5022,
        "meta_arg_of_pericenter": 52.5845,
        "meta_mean_anomaly": 307.723,
        "meta_ephemeris_type": 0,
        "meta_classification_type": "U",
        "meta_norad_cat_id": 33320,
        "meta_element_set_no": 999,
        "meta_rev_at_epoch": 92990,
        "meta_bstar": 0.00033657048,
        "meta_mean_motion_dot": 2.718e-05,
        "meta_mean_motion_ddot": 0,
        "tle_line1": "1 33320U 08041A   25340.96246489  .00002718  00000+0  33657-3 0  9990",
        "tle_line2": "2 33320  97.6535 329.5022 0020479  52.5845 307.7230 14.83366559929903"
      },
      "geometry": {
        "type": "Point",
        "coordinates": [
          150.9179276656676,
          7.373377371859945
        ]
      }
    },
    {
      "type": "Feature",
      "properties": {
        "norad_id": 33321,
        "name": "HUANJING 1B (HJ-1B)",
        "group": "resource",
        "lat": 43.41305092917703,
        "lon": -33.663532447825276,
        "alt_km": 599.1717912671256,
        "timestamp": "2025-12-07T09:35:09.448660+00:00",
        "meta_object_name": "HUANJING 1B (HJ-1B)",
        "meta_object_id": "2008-041B",
        "meta_epoch": "2025-12-06T22:03:08.061984",
        "meta_mean_motion": 14.82798426,
        "meta_eccentricity": 0.00382436,
        "meta_inclination": 97.6394,
        "meta_ra_of_asc_node": 333.1725,
        "meta_arg_of_pericenter": 94.2353,
        "meta_mean_anomaly": 266.3233,
        "meta_ephemeris_type": 0,
        "meta_classification_type": "U",
        "meta_norad_cat_id": 33321,
        "meta_element_set_no": 999,
        "meta_rev_at_epoch": 92991,
        "meta_bstar": 0.00028678065,
        "meta_mean_motion_dot": 2.297e-05,
        "meta_mean_motion_ddot": 0,
        "tle_line1": "1 33321U 08041B   25340.91884331  .00002297  00000+0  28678-3 0  9999",
        "tle_line2": "2 33321  97.6394 333.1725 0038243  94.2353 266.3233 14.82798426929918"
      },
      "geometry": {
        "type": "Point",
        "coordinates": [
          -33.663532447825276,
          43.41305092917703
        ]
      }
    },
    {
      "type": "Feature",
      "properties": {
        "norad_id": 33331,
        "name": "GEOEYE 1",
        "group": "resource",
        "lat": 15.675967204093597,
        "lon": 50.44869209401948,
        "alt_km": 677.9386722513591,
        "timestamp": "2025-12-07T09:35:09.448670+00:00",
        "meta_object_name": "GEOEYE 1",
        "meta_object_id": "2008-042A",
        "meta_epoch": "2025-12-06T22:02:16.412928",
        "meta_mean_motion": 14.64800268,
        "meta_eccentricity": 0.00028418,
        "meta_inclination": 98.1259,
        "meta_ra_of_asc_node": 52.2715,
        "meta_arg_of_pericenter": 302.4644,
        "meta_mean_anomaly": 57.6284,
        "meta_ephemeris_type": 0,
        "meta_classification_type": "U",
        "meta_norad_cat_id": 33331,
        "meta_element_set_no": 999,
        "meta_rev_at_epoch": 92200,
        "meta_bstar": 0.00022780145,
        "meta_mean_motion_dot": 1.168e-05,
        "meta_mean_motion_ddot": 0,
        "tle_line1": "1 33331U 08042A   25340.91824552  .00001168  00000+0  22780-3 0  9994",
        "tle_line2": "2 33331  98.1259  52.2715 0002841 302.4644  57.6284 14.64800268922003"
      },
      "geometry": {
        "type": "Point",
        "coordinates": [
          50.44869209401948,
          15.675967204093597
        ]
      }
    },
    {
      "type": "Feature",
      "properties": {
        "norad_id": 33396,
        "name": "THEOS",
        "group": "resource",
        "lat": 10.674197726809284,
        "lon": 38.014356705112654,
        "alt_km": 826.4309320645825,
        "timestamp": "2025-12-07T09:35:09.448681+00:00",
        "meta_object_name": "THEOS",
        "meta_object_id": "2008-049A",
        "meta_epoch": "2025-12-06T21:41:54.138048",
        "meta_mean_motion": 14.20094588,
        "meta_eccentricity": 0.00011063,
        "meta_inclination": 98.5877,
        "meta_ra_of_asc_node": 39.1658,
        "meta_arg_of_pericenter": 100.2374,
        "meta_mean_anomaly": 259.8928,
        "meta_ephemeris_type": 0,
        "meta_classification_type": "U",
        "meta_norad_cat_id": 33396,
        "meta_element_set_no": 999,
        "meta_rev_at_epoch": 89067,
        "meta_bstar": 0.00010010432,
        "meta_mean_motion_dot": 1.71e-06,
        "meta_mean_motion_ddot": 0,
        "tle_line1": "1 33396U 08049A   25340.90409882  .00000171  00000+0  10010-3 0  9992",
        "tle_line2": "2 33396  98.5877  39.1658 0001106 100.2374 259.8928 14.20094588890671"
      },
      "geometry": {
        "type": "Point",
        "coordinates": [
          38.014356705112654,
          10.674197726809284
        ]
      }
    }
  ]
}